name,verified,verification_method,service_type,is_truck,company_number,company_status,phone,email,website,address,region,source
247 TRUCK TYRES LTD,Yes,Companies House API,Mobile Truck Tyre,Yes,16948484,active,,,,"599 London Road, Reading, RG6 1AT",London,Companies House (mobile truck tyre)
ADVANCE MOBILE TYRES LIMITED,Yes,Companies House API,Mobile Truck Tyre,Yes,04698588,active,,,,"Acer House, 54a Hartford Road, Davenham Northwich, Cheshire, CW9 8JF",Cheshire,Companies House (mobile tyres)
AIRVAN MOBILE 24/7 TYRES LTD,Yes,Companies House API,Mobile Truck Tyre,Yes,16329733,active,,,,"7 Preston Road, Slough, SL2 5LP",North West,Companies House (mobile tyres)
DRS MOBILE TRUCK TYRES SERVICE LTD,Yes,Companies House API,Mobile Truck Tyre,Yes,16139729,active,,,,"62 Walbrook Road, Derby, DE23 8RY",East Midlands,Companies House (mobile tyres)
FLEET MOBILE TYRES LTD,Yes,Companies House API,Mobile Truck Tyre,Yes,16808697,active,,,,"71-75 Shelton Street, Covent Garden, London, WC2H 9JQ",London,Companies House (fleet mobile tyre)
1ST MOBILE TYRE FITTING LTD,Yes,Companies House API,Mobile Tyre (General),No,16652897,active,,,,"128 City Road, London, EC1V 2NX",London,Companies House (mobile tyre fitting)
24 HOURS TYRES CARDIFF LTD,Yes,Companies House API,Mobile Tyre (General),No,16914677,active,,,,"20 Bessemer Road, Cardiff, CF11 8BA",Wales,Companies House (24 hour tyre)
24/7 AA MOBILE TYRE SERVICE LTD,Yes,Companies House API,Mobile Tyre (General),No,16020223,active,,,,"13 Oakleigh Court Church Hill Road, Barnet, EN4 8UX",London,Companies House (mobile tyre service)
24/7 ALPHA MOBILE TYRE SERVICE LTD,Yes,Companies House API,Mobile Tyre (General),No,16673127,active,,,,"190 Billet Road, London, E17 5DX",London,Companies House (mobile tyre service)
24/7 EMERGENCY MOBILE TYRES SERVICE NORTH WEST LIMITED,Yes,Companies House API,Mobile Tyre (General),No,16584732,active,,,,"182 Chamber Road, Oldham, OL8 4DJ",,Companies House (emergency tyre)
24/7 MOBILE TYRE SERVICES LTD,Yes,Companies House API,Mobile Tyre (General),No,09831724,active,,,,"Clemency Business Centre, 354a Hollinwood Avenue, Manchester, Greater Manchester, M40 0JB",Greater Manchester,Companies House (mobile tyre service)
24/7 MOBILE TYRES SERVICES LTD,Yes,Companies House API,Mobile Tyre (General),No,16748148,active,,,,"64 Caburn Court, Crawley, RH11 8SX",,Companies House (mobile tyre service)
24/7 TYRE SERVICES LIMITED,Yes,Companies House API,Mobile Tyre (General),No,16624347,active,,,,"8 Beech Avenue, London, N20 9JT",London,Companies House (24/7 tyre)
24/7 TYRES LTD,Yes,Companies House API,Mobile Tyre (General),No,09477081,active,,,,"Unit 4, Gibraltar House, Alfred Road, Wallasey, CH44 7HY",,Companies House (24/7 tyre)
247 BREAKDOWN TYRES LTD,Yes,Companies House API,Mobile Tyre (General),No,16804314,active,,,,"Em044 Hexagon Tower, Manchester, M9 8GQ",North West,Companies House (breakdown tyre)
247 TYRE CARE LTD,Yes,Companies House API,Mobile Tyre (General),No,16177411,active,,,,"2nd Floor Chestnut House, 24 North Street, Rugby, CV21 2AG",,Companies House (24/7 tyre)
247 TYRE MOBILE LTD,Yes,Companies House API,Mobile Tyre (General),No,12813847,active,,,,"65 Broadway, London, E15 4BQ",London,Companies House (24/7 tyre)
247TYREASSIST LIMITED,Yes,Companies House API,Mobile Tyre (General),No,15085619,active,,,,"36 Rutland Avenue, High Wycombe, Buckinghamshire, HP12 3JH",Buckinghamshire,Companies House (24/7 tyre)
247TYRES COV LTD,Yes,Companies House API,Mobile Tyre (General),No,15909435,active,,,,"1110 Coventry Business Park, Coventry, CV5 6UB",West Midlands,Companies House (24/7 tyre)
24HR MOBILE TYRES FITTING SERVICE LTD,Yes,Companies House API,Mobile Tyre (General),No,14367554,active,,,,"Unit 4 Church Street, Middleton, Manchester, M24 2PY",North West,Companies House (mobile tyre fitting)
365 MOBILE TYRE SERVICES LTD,Yes,Companies House API,Mobile Tyre (General),No,15708133,active,,,,"46 Lacrosse Avenue, Oldham, OL8 4LU",,Companies House (mobile tyre service)
804 MOBILE TYRES LIMITED,Yes,Companies House API,Mobile Tyre (General),No,16322461,active,,,,"2 South Street, Bacup, OL13 9AP",,Companies House (mobile hgv tyre)
A J MOBILE TYRES 24/7 LIMITED,Yes,Companies House API,Mobile Tyre (General),No,15463546,active,,,,"124a Eversley Avenue, Bexleyheath, DA7 6RG",,Companies House (mobile tyres)
A TO ZEE MOBILE TYRES LIMITED,Yes,Companies House API,Mobile Tyre (General),No,16088736,active,,,,"Flat 13 Russell House, Cambridge Street, London, SW1V 4EQ",East of England,Companies House (mobile tyres)
A&L MOBILE TYRES LIMITED,Yes,Companies House API,Mobile Tyre (General),No,15420517,active,,,,"Crown House, 27 Old Gloucester Street, London, WC1N 3AX",London,Companies House (mobile tyres)
A.D.S. MOBILE TYRES LIMITED,Yes,Companies House API,Mobile Tyre (General),No,11398996,active,,,,"Homedale House The Street, Homedale House, Kings Lynn, PE33 9JN",,Companies House (mobile tyres)
A.M MOBILE TYRES LTD,Yes,Companies House API,Mobile Tyre (General),No,14280065,active,,,,"323 The Civic Building High Street, Epping, CM16 4BZ",,Companies House (mobile tyres)
A.N.S TYRES EMERGENCY MOBILE SERVICES 24HR LTD,Yes,Companies House API,Mobile Tyre (General),No,16243274,active,,,,"86 Wharf Street, Dukinfield, SK16 4RA",,Companies House (mobile tyres)
A1 MOBILE TYRE FITTING LTD,Yes,Companies House API,Mobile Tyre (General),No,SC863621,active,,,,"Admiral House, Montgomery Street, East Kilbride, G74 4BF",Scotland,Companies House (mobile truck tyre)
A1 MOBILE TYRE LIMITED,Yes,Companies House API,Mobile Tyre (General),No,16252768,active,,,,"373 C/O Cater Pearson Limited 373 High Street North,, East Ham, London, E12 6PG",London,Companies House (mobile truck tyre)
A2Z EXPRESS MOBILE TYRES LTD,Yes,Companies House API,Mobile Tyre (General),No,13241354,active,,,,"12 Limpsfield Avenue, Thornton Heath, CR7 6BE",,Companies House (mobile tyres)
A6 MOBILE TYRE FITTERS LTD,Yes,Companies House API,Mobile Tyre (General),No,16788360,active,,,,"200 Drake Street, Rochdale, OL16 1PJ",,Companies House (mobile truck tyre)
AA MOBILE TYRES (BLACKBURN) LTD,Yes,Companies House API,Mobile Tyre (General),No,16139326,active,,,,"Unit 3 67 Canterbury Street, Blackburn, Canterbury Street, Blackburn, BB2 2HT",,Companies House (mobile tyres)
AAA MOBILE TYRES LIMITED,Yes,Companies House API,Mobile Tyre (General),No,15152050,active,,,,"Elite Hand Carwash, Molesworth Street, Rochdale, OL16 2AW",,Companies House (mobile tyres)
ACE MOBILE TYRES LTD,Yes,Companies House API,Mobile Tyre (General),No,13827143,active,,,,"21 Mill Parade, Newport, NP20 2JQ",Wales,Companies House (mobile tyres)
ACTIVE MOBILE TYRE LTD,Yes,Companies House API,Mobile Tyre (General),No,13499342,active,,,,"54 Park Chase, Wembley, Middlesex, HA9 8EH",Middlesex,Companies House (mobile truck tyre)
ADE MOBILE TYRES LTD,Yes,Companies House API,Mobile Tyre (General),No,16313171,active,,,,"24 Anson Green, Newport, Gwent, NP19 9GN",Gwent,Companies House (mobile tyres)
AFFORDABLE MOBILE TYRES LTD,Yes,Companies House API,Mobile Tyre (General),No,16302488,active,,,,"101 Prebendal Avenue, Aylesbury, HP21 8LB",,Companies House (mobile tyres)
AI MOBILE TYRES LTD,Yes,Companies House API,Mobile Tyre (General),No,16762161,active,,,,"111a Burnt Oak Broadway, Edgware, HA8 5EN",,Companies House (mobile tyres)
AJM MOBILE TYRES & VEHICLE REPAIRS LTD,Yes,Companies House API,Mobile Tyre (General),No,15633206,active,,,,"28 Witch Elm, Harwich, CO12 4UB",,Companies House (mobile tyres)
AJR MOBILE TYRES LTD,Yes,Companies House API,Mobile Tyre (General),No,16283429,active,,,,"22 Tillycombe Road, Portland, Dorset, DT5 1LG",Dorset,Companies House (mobile tyres)
AKYS TYRES MOBILE TYRE FITTING LTD,Yes,Companies House API,Mobile Tyre (General),No,15798179,active,,,,"Quadrant House, Broad Street Mall, Reading, RG1 7QE",South East,Companies House (mobile tyres)
ALT MOBILE TYRE COMPANY LIMITED,Yes,Companies House API,Mobile Tyre (General),No,16496639,active,,,,"14 Great Park Close, Plymouth, PL7 2GP",South West,Companies House (mobile truck tyre)
AMERSHAM MOBILE TYRE SERVICE LTD,Yes,Companies House API,Mobile Tyre (General),No,13831822,active,,,,"28 Lowfield Way, Hazlemere, High Wycombe, HP15 7RR",,Companies House (mobile truck tyre)
AR MOBILES TYRES LTD,Yes,Companies House API,Mobile Tyre (General),No,16296088,active,,,,"3 Castleford Drive, Prestbury, Macclesfield, SK10 4BG",,Companies House (mobile tyres)
ASAP MOBILE TYRE LTD,Yes,Companies House API,Mobile Tyre (General),No,16329662,active,,,,"126 Wandsworth High Street, London, SW18 4JP",London,Companies House (mobile truck tyre)
ASHTON MOBILE TYRES LTD,Yes,Companies House API,Mobile Tyre (General),No,16109536,active,,,,"37 Hill Street, Ashton-Under-Lyne, Lancashire, OL7 0PZ",Lancashire,Companies House (mobile tyres)
AUTOMOTIVE MOBILE TYRES LTD,Yes,Companies House API,Mobile Tyre (General),No,16890923,active,,,,"50 High Furlong, Banbury, OX16 1PR",,Companies House (mobile tyres)
AYAZ TYRES MOBILE SERVICE LTD,Yes,Companies House API,Mobile Tyre (General),No,15611342,active,,,,"Ayaz Tyres, 426 Whalebone Lane South, Chadwell Heath, Romford, RM6 6HP",Romford,Companies House (mobile tyres)
B MOBILE TYRES LTD,Yes,Companies House API,Mobile Tyre (General),No,12377239,active,,,,"Church Street Industrial Estate, Church Gresley, Swadlincote, Derbys, DE11 9NR",Derbys,Companies House (mobile tyres)
BAY MOBILE TYRES LTD,Yes,Companies House API,Mobile Tyre (General),No,16136646,active,,,,"110 Nottage Crescent, Braintree, CM7 2TX",,Companies House (mobile tyres)
BEAUCHAMP MOBILE TYRE SERVICES LIMITED,Yes,Companies House API,Mobile Tyre (General),No,16354316,active,,,,"Unit 11 Beauchamp Industrial, Watling Street, Tamworth, Staffordshire, B77 5BZ",Staffordshire,Companies House (mobile truck tyre)
BEN'S MOBILE TYRES LTD,Yes,Companies House API,Mobile Tyre (General),No,16258046,active,,,,"17 Stambourne Road, Leicester, LE5 0TY",East Midlands,Companies House (mobile tyres)
BERKSHIRE EMERGENCY TYRES LTD,Yes,Companies House API,Mobile Tyre (General),No,16321949,active,,,,"110 Liverpool Road, Reading, RG1 3PQ",North West,Companies House (emergency tyre)
BEST FIT EXPRESS TYRES LTD,Yes,Companies House API,Mobile Tyre (General),No,14020489,active,,,,"58 Shrublands Avenue, Croydon, CR0 8JA",London,Companies House (express tyre mobile)
BILL'S MOBILE TYRES WICKFORD LTD,Yes,Companies House API,Mobile Tyre (General),No,15056324,active,,,,"Unit 35 Andersons Industrial Estate, Lower Park Road, Wickford, Essex, SS12 9EJ",Essex,Companies House (mobile tyres)
BM MOBILE TYRES LTD,Yes,Companies House API,Mobile Tyre (General),No,SC868813,active,,,,"72 Mulben Crescent, Glasgow, G53 7EH",Scotland,Companies House (mobile tyres)
BM RECOVERY & MOBILE TYRE SERVICES LTD,Yes,Companies House API,Mobile Tyre (General),No,15723449,active,,,,"61 Cooksey Road, Birmingham, B10 0BY",West Midlands,Companies House (mobile hgv tyre)
BMT MOBILE TYRE LTD,Yes,Companies House API,Mobile Tyre (General),No,16519980,active,,,,"Office 13051 182-184 High Street North, East Ham, London, E6 2JA",London,Companies House (mobile hgv tyre)
BOB’S MOBILE TYRES LTD,Yes,Companies House API,Mobile Tyre (General),No,15463466,active,,,,"Brunel House 11 The Promenade, Clifton, Bristol, BS8 3NG",South West,Companies House (mobile tyres)
BRISTOL 24/7 MOBILE TYRES LTD,Yes,Companies House API,Mobile Tyre (General),No,16243632,active,,,,"Unit 11 Cater Business Park, 23 Cater Road, Bristol, BS13 7TW",South West,Companies House (mobile tyres)
BRISTOL MOBILE TYRES LTD,Yes,Companies House API,Mobile Tyre (General),No,13574763,active,,,,"Meadowview, Ram Hill, Gloucestershire, BS36 2TX",Gloucestershire,Companies House (mobile tyres)
BRIT MOBILE TYRES LTD,Yes,Companies House API,Mobile Tyre (General),No,16434156,active,,,,"413 Oxford Road, Reading, RG30 1HA",South East,Companies House (mobile tyres)
BUCKS MOBILE TYRES LTD,Yes,Companies House API,Mobile Tyre (General),No,16521887,active,,,,"Flat 12 Fleming Court Grange Road, Chalfont St. Peter, Gerrards Cross, SL9 9FL",,Companies House (mobile tyres)
BUCKS SOS MOBILE TYRES LIMITED,Yes,Companies House API,Mobile Tyre (General),No,15832289,active,,,,"101 Prebendal Avenue, Aylesbury, HP21 8LB",,Companies House (mobile tyres)
BULLET MOBILE TYRES LTD,Yes,Companies House API,Mobile Tyre (General),No,16946759,active,,,,"53 Dunraven Avenue, Luton, LU1 1TP",,Companies House (mobile tyres)
BW MOBILE TYRES LIMITED,Yes,Companies House API,Mobile Tyre (General),No,16237954,active,,,,"10 Corporation Road, Newport, NP19 0AR",Wales,Companies House (mobile tyres)
CALL OUT TYRES LTD,Yes,Companies House API,Mobile Tyre (General),No,15580412,active,,,,"7 Dudley Road, Romford, RM3 8LH",,Companies House (callout tyre)
CANTERBURY MOBILE TYRES LIMITED,Yes,Companies House API,Mobile Tyre (General),No,13146457,active,,,,"37 Mill Road, Sturry, Canterbury, CT2 0AR",,Companies House (mobile tyres)
CAPITAL MOBILE TYRES LTD,Yes,Companies House API,Mobile Tyre (General),No,16361038,active,,,,"Capital, Capital Tures, North Farm Road, Tunbridge Wells, TN2 3DP",,Companies House (mobile tyres)
CENTRAL LONDON MOBILE TYRES LTD,Yes,Companies House API,Mobile Tyre (General),No,16453035,active,,,,"191 Homerton High Street, London, E9 6BB",London,Companies House (mobile tyres)
CHESHIRE MOBILE TYRES LTD,Yes,Companies House API,Mobile Tyre (General),No,12180374,active,,,,"Unit 7a Swindells Yard, New Mills, High Peak, SK22 4NS",,Companies House (mobile tyres)
CITY MOBILE TYRES LIMITED,Yes,Companies House API,Mobile Tyre (General),No,16479326,active,,,,"1 Sturgess Street, Stoke-On-Trent, ST4 7QH",West Midlands,Companies House (mobile tyres)
CLECKHEATON MOBILE TYRES LTD,Yes,Companies House API,Mobile Tyre (General),No,16858218,active,,,,"21 Hyde Park Road, Leeds, West Yorkshire, LS6 1PY",West Yorkshire,Companies House (mobile tyres)
CONNORS MOBILE TYRES LTD,Yes,Companies House API,Mobile Tyre (General),No,16913395,active,,,,"Norwich Accountancy, 19 Upper King Street, Norwich, Norfolk, NR3 1RB",Norfolk,Companies House (mobile tyres)
COS MOBILE TYRE FITTING LIMITED,Yes,Companies House API,Mobile Tyre (General),No,16915151,active,,,,"9 Dandridge Court, Grange Farm, Milton Keynes, MK8 0PQ",,Companies House (mobile hgv tyre)
CRAWLEY MOBILE TYRE TEAM LIMITED,Yes,Companies House API,Mobile Tyre (General),No,16281720,active,,,,"32 Raymead Avenue, Thornton Heath, CR7 7SA",,Companies House (mobile hgv tyre)
CREATIONS MOBILE TYRES LIMITED,Yes,Companies House API,Mobile Tyre (General),No,16015165,active,,,,"6th Floor, Amp House, Dingwall Road, Croydon, CR0 2LX",London,Companies House (mobile tyres)
D TYRE MOBILE UK LTD,Yes,Companies House API,Mobile Tyre (General),No,16089423,active,,,,"149 Spon Lane, West Bromwich, B70 6AS",,Companies House (mobile hgv tyre)
DANS MOBILE TYRES 24/7 LTD,Yes,Companies House API,Mobile Tyre (General),No,16178507,active,,,,"8 Southfield Road, Hull, HU5 4ES",Yorkshire,Companies House (mobile tyres)
DANS MOBILE TYRES LTD,Yes,Companies House API,Mobile Tyre (General),No,16056371,active,,,,"105 London Road, Benfleet, SS7 5TG",London,Companies House (mobile tyres)
DARREN MOBILE TYRES LTD,Yes,Companies House API,Mobile Tyre (General),No,15916101,active,,,,"42 Central Drive, Trevethin, Pontypool, NP4 8EF",Wales,Companies House (mobile tyres)
DC EMERGENCY TYRE FITTING LTD,Yes,Companies House API,Mobile Tyre (General),No,16921225,active,,,,"1 Royd Close, Worsbrough, Barnsley, S70 5JT",,Companies House (emergency tyre)
DEA EMERGENCY TYRES LIMITED,Yes,Companies House API,Mobile Tyre (General),No,15362414,active,,,,"15 Norfolk Road, Dudley, DY2 0UG",,Companies House (emergency tyre)
DENNYS MOBILE TYRES LTD,Yes,Companies House API,Mobile Tyre (General),No,SC840926,active,,,,"3 Rosehall Crescent, Uddingston, Glasgow, G71 7FQ",Scotland,Companies House (mobile tyres)
DG MOBILE TYRES LTD,Yes,Companies House API,Mobile Tyre (General),No,12268134,active,,,,"Unit 20 Palmerston Drive, Fareham, Hampshire, PO14 1DJ",Hampshire,Companies House (mobile tyres)
DL MOBILE TYRES LTD,Yes,Companies House API,Mobile Tyre (General),No,16305833,active,,,,"Abergarw Service Station Llangeinor Road, Brynmenyn, Bridgend, CF32 9LY",Wales,Companies House (mobile tyres)
DOT MOBILE TYRES LTD,Yes,Companies House API,Mobile Tyre (General),No,10650207,active,,,,"72 The Frithe, Slough, SL2 5SU",,Companies House (mobile tyres)
DOW MOBILE TYRES LIMITED,Yes,Companies House API,Mobile Tyre (General),No,16643241,active,,,,"C/O Archer Associates Churchill House, 120 Bunns Lane, London, London, NW7 2AS",London,Companies House (mobile tyres)
DRIVE BY MOBILE TYRES LTD,Yes,Companies House API,Mobile Tyre (General),No,14947090,active,,,,"109 Woodside Avenue, Benfleet, SS7 4NU",,Companies House (mobile tyres)
DSD MOBILE TYRES LTD,Yes,Companies House API,Mobile Tyre (General),No,09778470,active,,,,"Unit 2 The Old Feed Mills Main Road, Mosterton, Beaminster, Dorset, DT8 3HG",Dorset,Companies House (mobile tyres)
DTS MOBILE TYRES SERVICES LIMITED,Yes,Companies House API,Mobile Tyre (General),No,10468871,active,,,,"91 Handsworth New Road, Handsworth, Birmingham, B18 4QQ",West Midlands,Companies House (mobile tyres)
EASY FIX MOBILE TYRES LTD,Yes,Companies House API,Mobile Tyre (General),No,12185463,active,,,,"17 Ainthorpe Grove, Hull, East Yorkshire, HU5 5EA",East Yorkshire,Companies House (mobile tyres)
EASY MOBILE TYREFIT LTD,Yes,Companies House API,Mobile Tyre (General),No,05254280,active,,,,"Hoylake Service Station, 29 Hoylake Road, Moreton, Wirral, CH46 5NA",Wirral,Companies House (mobile hgv tyre)
ELITE MOBILE TYRES LTD,Yes,Companies House API,Mobile Tyre (General),No,16250629,active,,,,"71-75 Shelton Street, Covent Garden, London, WC2H 9JQ",London,Companies House (mobile hgv tyre)
EMERGENCY MOBILE TYRES LTD,Yes,Companies House API,Mobile Tyre (General),No,16533047,active,,,,"124 City Road, London, London, EC1V 2NX",London,Companies House (mobile commercial tyre)
EMERGENCY TYRE LTD,Yes,Companies House API,Mobile Tyre (General),No,15221576,active,,,,"5 Ribblesdale Place, Preston, PR1 8BZ",North West,Companies House (emergency tyre)
EMERGENCY TYRE REPAIRS LTD,Yes,Companies House API,Mobile Tyre (General),No,14876840,active,,,,"97 Judd Street, London, WC1H 9JG",London,Companies House (emergency tyre)
EMERGENCY TYRE RESCUE LTD,Yes,Companies House API,Mobile Tyre (General),No,16367455,active,,,,"13 Throwley Close, London, SE2 9LB",London,Companies House (emergency tyre)
EMERGENCY TYRES 24/7 LTD,Yes,Companies House API,Mobile Tyre (General),No,15410714,active,,,,"Suite 9 Dalton House, 60 Windsor Avenue, London, SW19 2RR",London,Companies House (emergency tyre)
EPPING STATION MOBILE TYRES LIMITED,Yes,Companies House API,Mobile Tyre (General),No,16646099,active,,,,"161 Forest Road, London, E17 6HE",London,Companies House (mobile commercial tyre)
EVEREST MOBILE TYRE LTD,Yes,Companies House API,Mobile Tyre (General),No,16600510,active,,,,"Flat 9 Windmill Court, High Street, Aldershot, GU12 4ND",,Companies House (mobile commercial tyre)
EVERY ROAD MOBILE TYRES LTD,Yes,Companies House API,Mobile Tyre (General),No,16941103,active,,,,"15 Prescott Avenue, Banbury, OX16 0RE",,Companies House (mobile commercial tyre)
EXETER MOBILE TYRES LIMITED,Yes,Companies House API,Mobile Tyre (General),No,16540287,active,,,,"Courtenay House, Pynes Hill, Exeter, Devon, EX2 5AZ",Devon,Companies House (mobile commercial tyre)
EXPRESS MOBILE TYRES LIMITED,Yes,Companies House API,Mobile Tyre (General),No,16611857,active,,,,"3 Eastcourt Avenue, Earley, Reading, RG6 1HH",South East,Companies House (mobile commercial tyre)
EXTRA MILE MOBILE TYRES LTD,Yes,Companies House API,Mobile Tyre (General),No,14412838,active,,,,"Regus- Admirals Park Victory Way, Crossways Business Park, Dartford, Kent, DA2 6QD",Kent,Companies House (mobile commercial tyre)
FALCON MOBILE TYRE FITTING LTD,Yes,Companies House API,Mobile Tyre (General),No,15541400,active,,,,"190 Billet Road, London, E17 5DX",London,Companies House (mobile commercial tyre)
FAST MOBILE TYRES & RECOVERY LIMITED,Yes,Companies House API,Mobile Tyre (General),No,16919502,active,,,,"Flat 1 24 Priory Road, High Wycombe, HP13 6SL",,Companies House (mobile commercial tyre)
FAST RESPONSE MOBILE TYRES LTD,Yes,Companies House API,Mobile Tyre (General),No,15559636,active,,,,"89 Invito House 1-7 Bramley Crescent, Ilford, IG2 6NU",,Companies House (mobile commercial tyre)
FAST TYRE FITTING MOBILE LTD,Yes,Companies House API,Mobile Tyre (General),No,16373264,active,,,,"Official 125,Mill Hill House, 6 The Broadway,Mill Hill, London, NW7 3LL",London,Companies House (mobile tyre fitting)
FASTFIT MOBILE TYRES LTD,Yes,Companies House API,Mobile Tyre (General),No,16736091,active,,,,"45-49 Station Road, Hampton, TW12 2BU",,Companies House (mobile commercial tyre)
FLASH MOBILE TYRE SERVICE LIMITED,Yes,Companies House API,Mobile Tyre (General),No,16096622,active,,,,"33 Tern Crescent, Rochester, ME2 2RG",,Companies House (mobile tyre service)
FT MOBILE TYRE SERVICES LIMITED,Yes,Companies House API,Mobile Tyre (General),No,15940112,active,,,,"55 Vernon Road 55 Vernon Road, ,, Rotherham, S60 3NL",,Companies House (mobile tyre service)
G1 MOBILE TYRE SERVICES LTD,Yes,Companies House API,Mobile Tyre (General),No,12555105,active,,,,"Flat 3b The Fairmead Park Street, Colnbrook, Slough, SL3 0HS",,Companies House (mobile tyre service)
H.K MOBILE TYRE SERVICES LTD,Yes,Companies House API,Mobile Tyre (General),No,15352358,active,,,,"33 Roydstone Terrace, Bradford, BD3 7EW",Yorkshire,Companies House (mobile tyre service)
HERTS BEDS AND BUCKS MOBILE TYRE SERVICES LTD,Yes,Companies House API,Mobile Tyre (General),No,15997966,active,,,,"21 Stanford Road, Southill, Biggleswade, SG18 9HX",,Companies House (mobile tyre service)
HOLDEN COMMUNICATIONS T/A EXPRESS MOBILE TYRES LIMITED,Yes,Companies House API,Mobile Tyre (General),No,03359010,active,,,,"1 Bowood Court, Winwick Quay, Warrington, Cheshire, WA2 8QZ",Cheshire,Companies House (express tyre mobile)
J & R MOBILE TYRES SERVICE LTD,Yes,Companies House API,Mobile Tyre (General),No,11673874,active,,,,"3 Hillside, London, NW9 0NE",London,Companies House (mobile tyre service)
JET MOBILE TYRE FITTING LTD,Yes,Companies House API,Mobile Tyre (General),No,15603994,active,,,,"Flat 5 80 The Grove, Edgware, HA8 9QB",,Companies House (mobile tyre fitting)
JF MOBILE TYRE SERVICES LTD,Yes,Companies House API,Mobile Tyre (General),No,16881538,active,,,,"175a Staplegrove Road, Taunton, TA2 6AF",,Companies House (mobile tyre service)
JHS BREAKDOWN RECOVERY & MOBILE TYRES LTD,Yes,Companies House API,Mobile Tyre (General),No,15136590,active,,,,"14 Charnborough Road, Coalville, LE67 4SF",,Companies House (breakdown tyre)
JRE MOBILE TYRE SERVICES LIMITED,Yes,Companies House API,Mobile Tyre (General),No,15389639,active,,,,"45 Tack Farm Road, Stourbridge, DY8 5DR",,Companies House (mobile tyre service)
K K MOBILE TYRE SERVICE LIMITED,Yes,Companies House API,Mobile Tyre (General),No,06247600,active,,,,"19 Whist Avenue, Wickford, SS11 8LN",,Companies House (mobile tyre service)
KEITH DOUGAN MOBILE TYRE SERVICES LTD,Yes,Companies House API,Mobile Tyre (General),No,NI683013,active,,,,"4 Nursery Road, Armagh, Armagh, Armagh, BT60 4AR",Armagh,Companies House (mobile tyre service)
KENT MOBILE TYRES SERVICES LTD,Yes,Companies House API,Mobile Tyre (General),No,15803134,active,,,,"1 Fareham Walk, Maidstone, ME15 8UW",,Companies House (mobile tyre service)
LEEDS RAPID MOBILE TYRES LIMITED,Yes,Companies House API,Mobile Tyre (General),No,16154598,active,,,,"15 Sandhurst Place, Leeds, LS8 3QW",Yorkshire,Companies House (rapid tyre)
LEO’S EMERGENCY MOBILE TYRE FITTING LTD,Yes,Companies House API,Mobile Tyre (General),No,15095419,active,,,,"6 Golden Hillock Road, Dudley, West Midlands, DY2 0AQ",West Midlands,Companies House (emergency tyre)
LIFESAVERS EMERGENCY TYRE SERVICE 24HR LTD,Yes,Companies House API,Mobile Tyre (General),No,11107730,active,,,,"10 Springfield Mount, London, NW9 0SR",London,Companies House (emergency tyre)
LIFESAVERS EMERGENCY TYRES LTD,Yes,Companies House API,Mobile Tyre (General),No,15731828,active,,,,"15c Vancouver Road, Edgware, HA8 5DB",,Companies House (emergency tyre)
LONDON MOBILE TYRE EXPRESS 24/7 LTD,Yes,Companies House API,Mobile Tyre (General),No,16035715,active,,,,"9 Regency House, 5 Vanguard Way, London, E17 6DX",London,Companies House (express tyre mobile)
LONDON'S MOBILE TYRE FITTING LIMITED,Yes,Companies House API,Mobile Tyre (General),No,13756687,active,,,,"6 Unit 8, Free Prae Road, Chertsey, KT16 8EA",,Companies House (mobile tyre fitting)
LUX TYRES MOBILE TYRE FITTING LTD,Yes,Companies House API,Mobile Tyre (General),No,14218095,active,,,,"119 Hopwood Lane, Halifax, HX1 4HB",,Companies House (mobile tyre fitting)
M4 TYRES MOBILE SERVICES LTD,Yes,Companies House API,Mobile Tyre (General),No,14879415,active,,,,"M4 Service Link Road (East), Off North Hyde Lane, Hounslow, TW5 0EP",,Companies House (mobile tyre service)
MANCHESTER MOBILE TYRE SERVICE LTD,Yes,Companies House API,Mobile Tyre (General),No,11812997,active,,,,"731 Stockport Road Stockport Road, Manchester, M19 3AR",North West,Companies House (mobile tyre service)
MHA MOBILE TYRE FITTING LTD,Yes,Companies House API,Mobile Tyre (General),No,16114942,active,,,,"16 Robbinswood, Bushmead, Luton, England, LU2 7YU",England,Companies House (mobile tyre fitting)
MICHAEL'S MOBILE TYRE SERVICES LTD,Yes,Companies House API,Mobile Tyre (General),No,12649320,active,,,,"58 Fairfield Road, London, London, N18 2QJ",London,Companies House (mobile tyre service)
MIDLANDS MOBILE TYRE SERVICE LTD,Yes,Companies House API,Mobile Tyre (General),No,15646278,active,,,,"45a Formans Road, Sparkhill, Birmingham, B11 3AR",West Midlands,Companies House (mobile tyre service)
MILTON KEYNES MOBILE TYRE FITTING LTD,Yes,Companies House API,Mobile Tyre (General),No,16689032,active,,,,"75 Foxholes Close, Deanshanger, Milton Keynes, MK19 6HA",,Companies House (mobile tyre fitting)
MOBILE EMERGENCY TYRE & RECOVERY SERVICE LTD,Yes,Companies House API,Mobile Tyre (General),No,16187472,active,,,,"60 Lyndhurst Road, Tilehurst, Reading, RG30 6UA",South East,Companies House (emergency tyre)
MOBILE MECHANIC & TYRES SERVICE OXFORD LTD,Yes,Companies House API,Mobile Tyre (General),No,16677340,active,,,,"1 Windmill Road, Headington, Oxford, OX3 7BL",South East,Companies House (mobile tyre service)
MOBILE TYRE & SERVICES LTD,Yes,Companies House API,Mobile Tyre (General),No,16750217,active,,,,"Unit 480 Cantrell Road, London, E3 4BN",London,Companies House (mobile tyre)
MOBILE TYRE ASSIST LTD,Yes,Companies House API,Mobile Tyre (General),No,15996995,active,,,,"42 Culver Lane, Reading, RG6 1DY",South East,Companies House (mobile tyre)
MOBILE TYRE BAY LTD,Yes,Companies House API,Mobile Tyre (General),No,15037362,active,,,,"163 West Wycombe Road, Lower Ground Floor, High Wycombe, HP12 3AB",,Companies House (mobile tyre)
MOBILE TYRE BUDDY LTD,Yes,Companies House API,Mobile Tyre (General),No,15179263,active,,,,"19 Radnor Street, Oldham, OL9 7RH",,Companies House (mobile tyre)
MOBILE TYRE CENTRE LTD,Yes,Companies House API,Mobile Tyre (General),No,16592144,active,,,,"20 Wenlock Road, London, N1 7GU",London,Companies House (mobile tyre)
MOBILE TYRE CLINIC LTD,Yes,Companies House API,Mobile Tyre (General),No,13780015,active,,,,"Unit 3e, Autumn Yard, 39 Autumn Street, London, E3 2TT",London,Companies House (mobile tyre)
MOBILE TYRE COMPANY (LAXFIELD) LIMITED,Yes,Companies House API,Mobile Tyre (General),No,13370188,active,,,,"Potash Farm, Dennington Road, Laxfield, Nr Woodbridge, Suffolk, IP13 8HJ",Suffolk,Companies House (mobile tyre)
MOBILE TYRE EXPERTS 24*7 LTD,Yes,Companies House API,Mobile Tyre (General),No,15498767,active,,,,"25 Walnut Tree Road, Hounslow, TW5 0LP",,Companies House (mobile tyre)
MOBILE TYRE EXPERTS LTD,Yes,Companies House API,Mobile Tyre (General),No,15203000,active,,,,"11 Maryland Road, Thornton Heath, Surrey, CR7 8DG",Surrey,Companies House (mobile tyre)
MOBILE TYRE FITTER LTD,Yes,Companies House API,Mobile Tyre (General),No,15243488,active,,,,"34 Galeys Road, Chelysmore, CV3 5GN",,Companies House (mobile tyre)
MOBILE TYRE FITTING BICESTER 24/7 MOBILE TYRE DOCTOR LTD,Yes,Companies House API,Mobile Tyre (General),No,16880970,active,,,,"20 Jesse Terrace, Reading, RG1 7RT",South East,Companies House (mobile tyre)
MOBILE TYRE FITTING CHELMSFORD LTD,Yes,Companies House API,Mobile Tyre (General),No,16742870,active,,,,"Ashtree Farm Boyton Cross, Roxwell, Chelmsford, CM1 4LP",,Companies House (mobile tyre)
MOBILE TYRE FITTING LONDON LTD,Yes,Companies House API,Mobile Tyre (General),No,09352380,active,,,,"84 Brunswick Park Road, London, N11 1JJ",London,Companies House (mobile tyre)
MOBILE TYRE FITTING LTD,Yes,Companies House API,Mobile Tyre (General),No,16074427,active,,,,"34 Galeys Road, Chelysmore, CV3 5GN",,Companies House (mobile tyre)
MOBILE TYRE FITTING NEAR ME LTD,Yes,Companies House API,Mobile Tyre (General),No,16584789,active,,,,"128 Uxbridge Road, London, W12 8AA",London,Companies House (mobile tyre)
MOBILE TYRE FITTING OXFORD 24/7 MOBILE TYRE DOCTOR LTD,Yes,Companies House API,Mobile Tyre (General),No,16880836,active,,,,"20 Jesse Terrace, Reading, RG1 7RT",South East,Companies House (mobile tyre)
MOBILE TYRE FITTING READING 24/7 MOBILE TYRE DOCTOR LTD,Yes,Companies House API,Mobile Tyre (General),No,16880750,active,,,,"20 Jesse Terrace, Reading, RG1 7RT",South East,Companies House (mobile tyre)
MOBILE TYRE FITTING STRATFORD LTD,Yes,Companies House API,Mobile Tyre (General),No,15521074,active,,,,"49 Maryland Square, Stratford, London, E15 1HF",London,Companies House (mobile tyre)
MOBILE TYRE FITTING TEES VALLEY LTD,Yes,Companies House API,Mobile Tyre (General),No,16389024,active,,,,"6 Heslop Street, Thornaby, Stockton On Tees, TS17 7HA",,Companies House (mobile tyre)
MOBILE TYRE FIXER LTD,Yes,Companies House API,Mobile Tyre (General),No,15443132,active,,,,"34 Galeys Road, Chelysmore, CV3 5GN",,Companies House (mobile tyre)
MOBILE TYRE FORCE LTD,Yes,Companies House API,Mobile Tyre (General),No,14728776,active,,,,"Portland House, Belmont Business Park, Durham, DH1 1TW",North East,Companies House (mobile tyre)
MOBILE TYRE FUSION LTD,Yes,Companies House API,Mobile Tyre (General),No,16907203,active,,,,"142 Windsor Road, Ilford, IG1 1HE",,Companies House (mobile tyre)
MOBILE TYRE GIANT LTD,Yes,Companies House API,Mobile Tyre (General),No,10612276,active,,,,"Gutteridge Works, Western Avenue, Uxbridge, UB10 9AP",,Companies House (mobile tyre)
MOBILE TYRE GROUP LTD,Yes,Companies House API,Mobile Tyre (General),No,16143084,active,,,,"19 Jennings Place, Bradford, West Yorkshire, BD7 3EZ",West Yorkshire,Companies House (mobile tyre)
MOBILE TYRE HUB LTD,Yes,Companies House API,Mobile Tyre (General),No,13417642,active,,,,"03 Eastcourt Avenue, Earley, Reading, RG6 1HH",South East,Companies House (mobile tyre)
MOBILE TYRE LAB LTD,Yes,Companies House API,Mobile Tyre (General),No,16914529,active,,,,"35b Greenleaf Road, London, E17 6QN",London,Companies House (mobile tyre)
MOBILE TYRE LEICESTER LIMITED,Yes,Companies House API,Mobile Tyre (General),No,15261798,active,,,,"389 Abbey Lane, Leicester, LE4 5QJ",East Midlands,Companies House (mobile tyre)
MOBILE TYRE LONDON LTD,Yes,Companies House API,Mobile Tyre (General),No,15950257,active,,,,"11 Florida Road, Thornton Heath, CR7 8EY",,Companies House (mobile tyre)
MOBILE TYRE MATES LTD,Yes,Companies House API,Mobile Tyre (General),No,16667811,active,,,,"172 Newport Road, Aldershot, GU12 4PZ",Wales,Companies House (mobile tyre)
MOBILE TYRE MEDICS LIMITED,Yes,Companies House API,Mobile Tyre (General),No,15959771,active,,,,"6 Fallowfield Drive, Newport, NP19 4TD",Wales,Companies House (mobile tyre)
MOBILE TYRE PROFESSIONALS LIMITED,Yes,Companies House API,Mobile Tyre (General),No,08335032,active,,,,"11 Lynx Crescent, Weston-Super-Mare, BS24 9DJ",,Companies House (mobile tyre)
MOBILE TYRE REPAIR TEAM LTD,Yes,Companies House API,Mobile Tyre (General),No,15949849,active,,,,"662 High Road, London, N12 0NL",London,Companies House (mobile tyre)
MOBILE TYRE REPLACEMENT LIMITED,Yes,Companies House API,Mobile Tyre (General),No,16284277,active,,,,"26 Lottie Road, Birmingham, B29 6JZ",West Midlands,Companies House (mobile tyre)
MOBILE TYRE RESCUE LTD,Yes,Companies House API,Mobile Tyre (General),No,13600322,active,,,,"464 Wokingham Road, Earley, Reading, RG6 7HY",South East,Companies House (mobile tyre)
MOBILE TYRE RESCUE SERVICE LTD,Yes,Companies House API,Mobile Tyre (General),No,16887384,active,,,,"Flat 12 Banstead Court, 50 Westway, London, W12 0QH",London,Companies House (mobile tyre)
MOBILE TYRE RESCUE24/7 LTD,Yes,Companies House API,Mobile Tyre (General),No,16538155,active,,,,"61 Delamare Road, Hayes, UB4 0NN",,Companies House (mobile tyre)
MOBILE TYRE RUNNER LTD,Yes,Companies House API,Mobile Tyre (General),No,16153839,active,,,,"93 Vale Crescent South, Nottingham, NG8 3PQ",East Midlands,Companies House (mobile tyre)
MOBILE TYRE SERVICES 247 LTD,Yes,Companies House API,Mobile Tyre (General),No,16427788,active,,,,"599 London Road, Earley, Reading, Berkshire, RG6 1AT",Berkshire,Companies House (mobile tyre)
MOBILE TYRE SERVICES LTD,Yes,Companies House API,Mobile Tyre (General),No,13660241,active,,,,"15 Redman Road, High Wycombe, HP12 4PH",,Companies House (mobile tyre)
MOBILE TYRE SERVICES MANCHESTER LIMITED,Yes,Companies House API,Mobile Tyre (General),No,09212733,active,,,,"Unit 1 Sandywood Depot Lumns Lane, Clifton, Swinton, Manchester, M27 8LH",North West,Companies House (mobile tyre)
MOBILE TYRE SOLUTIONS LTD,Yes,Companies House API,Mobile Tyre (General),No,15161657,active,,,,"Acorn House, Bower Street, Oldham, OL1 3PH",,Companies House (mobile tyre)
MOBILE TYRE SPECIALISTS LIMITED,Yes,Companies House API,Mobile Tyre (General),No,15974806,active,,,,"126 Wish Hill, Eastbourne, BN20 9HL",,Companies House (mobile tyre)
MOBILE TYRE SURGEONS LIMITED,Yes,Companies House API,Mobile Tyre (General),No,15550602,active,,,,"39 Granton Road, London, SW16 5AN",London,Companies House (mobile tyre)
MOBILE TYRE TECH LIMITED,Yes,Companies House API,Mobile Tyre (General),No,15765179,active,,,,"6 Free Prae Road, Chertsey, KT16 8EA",,Companies House (mobile tyre)
MOBILE TYRE XPRESS LTD,Yes,Companies House API,Mobile Tyre (General),No,16200071,active,,,,"3 Vienna Close, Ilford, IG5 0PU",,Companies House (mobile tyre)
MOBILE TYRE ZONE LTD,Yes,Companies House API,Mobile Tyre (General),No,15977857,active,,,,"20 Berkeley Avenue, Reading, Berkshire, RG1 6JE",Berkshire,Companies House (mobile tyre)
MOBILE TYREMAN LIMITED,Yes,Companies House API,Mobile Tyre (General),No,13178058,active,,,,"East London Business Centre, 93-101 Greenfield Road, London, E1 1EJ",London,Companies House (mobile tyre)
MOBILE TYRES & MECHANIC LTD,Yes,Companies House API,Mobile Tyre (General),No,14055418,active,,,,"662 High Road, London, N12 0NL",London,Companies House (mobile tyre)
MOBILE TYRES (GOOLE) LIMITED,Yes,Companies House API,Mobile Tyre (General),No,08450293,active,,,,"Mobile Tyres (Goole), Mariners Street, Goole, East Yorkshire, DN14 5BS",East Yorkshire,Companies House (mobile tyre)
MOBILE TYRES 2 U LTD,Yes,Companies House API,Mobile Tyre (General),No,07420840,active,,,,"Southside Farm White Hill, London Road, Wooburn Moor, High Wycombe, Buckinghamshire, HP10 0NN",Buckinghamshire,Companies House (mobile tyre)
MOBILE TYRES 247 LTD,Yes,Companies House API,Mobile Tyre (General),No,15191066,active,,,,"310 High Road, Wood Green, London, N22 8JR",London,Companies House (mobile tyre)
MOBILE TYRES 4 YOU LTD,Yes,Companies House API,Mobile Tyre (General),No,12406929,active,,,,"117 Dartford Rd, Dartford, Kent, DA1 3EN",Kent,Companies House (mobile tyre)
MOBILE TYRES DOCTOR LTD,Yes,Companies House API,Mobile Tyre (General),No,16709742,active,,,,"41 Hogarth Road, Ipswich, IP3 0HA",East of England,Companies House (mobile tyre)
MOBILE TYRES LIMITED,Yes,Companies House API,Mobile Tyre (General),No,07586783,active,,,,"The Courtyard Shoreham Road, Upper Beeding, Steyning, West Sussex, BN44 3TN",West Sussex,Companies House (mobile tyre)
MOBILE TYRES LOCAL LTD,Yes,Companies House API,Mobile Tyre (General),No,15349702,active,,,,"3rd Floor, 86-90 Paul Street, London, EC2A 4NE",London,Companies House (mobile tyre)
MOBILE TYRES LONDON 247 LTD,Yes,Companies House API,Mobile Tyre (General),No,16950508,active,,,,"310 High Road, Wood Green, London, N22 8JR",London,Companies House (mobile tyre)
MOBILE TYRES NATIONWIDE LTD,Yes,Companies House API,Mobile Tyre (General),No,16163981,active,,,,"129 St. Johns Road, Slough, SL2 5HA",,Companies House (mobile tyre)
MOBILE TYRES NEAR ME LIMITED,Yes,Companies House API,Mobile Tyre (General),No,12720945,active,,,,"152 Rushgrove Avenue, London, NW9 6RE",London,Companies House (mobile tyre)
MOBILE TYRES ONDEMAND LTD,Yes,Companies House API,Mobile Tyre (General),No,15628367,active,,,,"7 Brinkburn Grove, Banbury, OX16 3WX",,Companies House (mobile tyre)
MOBILE TYRES PORTSMOUTH LIMITED,Yes,Companies House API,Mobile Tyre (General),No,16623956,active,,,,"Suite 9 Pine Court Business Centre, 36 Gervis Road, Bournemouth, United Kingdom, BH1 3DH",United Kingdom,Companies House (mobile tyre)
MOBILE TYRES RESCUE LTD,Yes,Companies House API,Mobile Tyre (General),No,SC863876,active,,,,"Flat 1.1 116 Maukinfauld Rd, Glasgow, G32 8TP",Scotland,Companies House (mobile tyre)
MOBILE TYRES SERVICE LTD,Yes,Companies House API,Mobile Tyre (General),No,15950403,active,,,,"19 Waddon Close, Croydon, CR0 4JT",London,Companies House (mobile tyre)
MOBILE TYRES SOLUTIONS 247 LTD,Yes,Companies House API,Mobile Tyre (General),No,15766173,active,,,,"9 Virginia Way, Reading, RG30 3QJ",South East,Companies House (mobile tyre)
MOBILE TYRES SPECIALISTS CO LTD,Yes,Companies House API,Mobile Tyre (General),No,13257762,active,,,,"162 Broad Street, Chesham, HP5 3ED",,Companies House (mobile tyre)
MOBILE TYRES SURREY LTD,Yes,Companies House API,Mobile Tyre (General),No,13548574,active,,,,"41 Oldfields Road, Sutton, Surrey, SM1 2NB",Surrey,Companies House (mobile tyre)
MTM MOBILE TYRE & RECOVERY SERVICES LTD,Yes,Companies House API,Mobile Tyre (General),No,16930710,active,,,,"Flat 3 Clare House, 49 Uxbridge Road, London, W7 3PX",London,Companies House (mobile tyre service)
NUTTS CORNER TYRES & BREAKDOWN SERVICES LTD,Yes,Companies House API,Mobile Tyre (General),No,NI711458,active,,,,"42 Belfast Road, Nutts Corner, Crumlin, BT29 4TH",Northern Ireland,Companies House (breakdown tyre)
OLYMPUS MOBILE TYRE FITTING HATFIELD LTD,Yes,Companies House API,Mobile Tyre (General),No,14933347,active,,,,"4 Daffodil Close, Daffodil Close, Hatfield, AL10 9FF",,Companies House (mobile tyre fitting)
OLYMPUS MOBILE TYRE FITTING ST ALBANS LTD,Yes,Companies House API,Mobile Tyre (General),No,14805012,active,,,,"Office 205, 2 Fountain Court Regus Victoria Street, St. Albans, AL1 3TF",,Companies House (mobile tyre fitting)
OXBRIDGE MOBILE TYRE FITTING LTD,Yes,Companies House API,Mobile Tyre (General),No,15137408,active,,,,"42-44 Adelaide Street, Bradford, BD5 0EA",Yorkshire,Companies House (mobile tyre fitting)
PRIME MOBILE TYRE FITTING LTD,Yes,Companies House API,Mobile Tyre (General),No,16183750,active,,,,"190 Billet Road, London, E17 5DX",London,Companies House (mobile tyre fitting)
PROF'S MOBILE TYRES AND SERVICES LTD,Yes,Companies House API,Mobile Tyre (General),No,14338291,active,,,,"3 Felton Close, Borehamwood, WD6 4LF",,Companies House (mobile tyre service)
PROMPT 24/7 MOBILE TYRE SERVICE LTD,Yes,Companies House API,Mobile Tyre (General),No,11141648,active,,,,"06 Hermitage Close, Farnborough, GU14 6UQ",,Companies House (mobile tyre service)
PUMP TO GO 24/7 MOBILE TYRE SERVICES LTD,Yes,Companies House API,Mobile Tyre (General),No,15460073,active,,,,"38 Frayslea, Uxbridge, UB8 2AT",,Companies House (mobile tyre service)
RANGER TYRE MOBILE FITTING SERVICE LTD,Yes,Companies House API,Mobile Tyre (General),No,13824103,active,,,,"33 Holloway, Birmingham, B31 1TP",West Midlands,Companies House (mobile tyre fitting)
RAPID FIT TYRES LTD,Yes,Companies House API,Mobile Tyre (General),No,07366097,active,,,,"61 Fairfield Road, West Drayton, West Drayton, Middlesex, UB7 8EZ",Middlesex,Companies House (rapid tyre)
RAPID MOBILE TYRES LTD,Yes,Companies House API,Mobile Tyre (General),No,15084039,active,,,,"Basement Flat 46 Basement Flat 46, Morden Road, Newport, NP19 7ES",Wales,Companies House (rapid tyre)
RAPID RESPONSE TYRES LTD,Yes,Companies House API,Mobile Tyre (General),No,16024054,active,,,,"31 Villiers Street, Sunniside, Sunderland, Tyne And Wear, SR1 1EJ",Tyne And Wear,Companies House (rapid tyre)
RAPID TYRE 247 LTD,Yes,Companies House API,Mobile Tyre (General),No,16823077,active,,,,"Unit 15a Slough Business Park, 94 Farnham Road, Slough, SL1 3FQ",,Companies House (rapid tyre)
RAPID TYRE DISTRIBUTION LTD,Yes,Companies House API,Mobile Tyre (General),No,NI728714,active,,,,"10 Cloughreagh Park, Bessbrook, Newry, BT35 7EJ",Northern Ireland,Companies House (rapid tyre)
RAPID TYRE SERVICE (WHOLESALE) LTD,Yes,Companies House API,Mobile Tyre (General),No,16235001,active,,,,"63 Knightlow Road, Birmingham, B17 8PX",West Midlands,Companies House (rapid tyre)
RAPID TYRE SERVICE AND SUPPLIES LTD,Yes,Companies House API,Mobile Tyre (General),No,16768133,active,,,,"Flat 25 Romsley Hill Grange Farley Lane, Romsley, Halesowen, B62 0LN",,Companies House (rapid tyre)
RAPID TYRE SERVICE LTD,Yes,Companies House API,Mobile Tyre (General),No,13390328,active,,,,"Huntington Accountancy 15 Stag Drive, Huntington, Cannock, WS12 4UJ",,Companies House (rapid tyre)
RAPID TYRES LTD,Yes,Companies House API,Mobile Tyre (General),No,SC836183,active,,,,"19 Wilson Court, Bellshill, ML4 3DB",Scotland,Companies House (rapid tyre)
REALDEAL MOBILE TYRES AND MECHANICALS SERVICE LTD,Yes,Companies House API,Mobile Tyre (General),No,11514456,active,,,,"11514456 - COMPANIES HOUSE DEFAULT ADDRESS, Cardiff, CF14 8LH",Wales,Companies House (mobile tyre service)
RICHIE’S MOBILE TYRE SERVICE LTD,Yes,Companies House API,Mobile Tyre (General),No,14723571,active,,,,"24 Milling Road, Edgware, HA8 0PL",,Companies House (mobile tyre service)
RK TYRES & ROADSIDE RECOVERY LTD,Yes,Companies House API,Mobile Tyre (General),No,SC801273,active,,,,"21 Greenhill Road, Paisley, Renfrewshire, PA3 1RN",Renfrewshire,Companies House (roadside tyre)
ROAD HERO MOBILE TYRE FITTING LTD,Yes,Companies House API,Mobile Tyre (General),No,16398326,active,,,,"472a Green Lanes, London, N13 5PA",London,Companies House (mobile tyre fitting)
ROADSIDE TYRE ASSISTANCE LTD,Yes,Companies House API,Mobile Tyre (General),No,14588981,active,,,,"36 Lichfield Street, Walsall, WS1 1TJ",West Midlands,Companies House (roadside tyre)
ROADSIDE TYRE SERVICES LTD,Yes,Companies House API,Mobile Tyre (General),No,16488641,active,,,,"Unit 1, Rear Of Pmj House, Highlands Road, Solihull, B90 4ND",Yorkshire,Companies House (roadside tyre)
ROADSIDE TYRES (THAMES VALLEY) LIMITED,Yes,Companies House API,Mobile Tyre (General),No,09490494,active,,,,"Goose Green, 119 Turnpike Road, Newbury, West Berkshire, RG14 2QR",West Berkshire,Companies House (roadside tyre)
ROADSIDE TYRES 24HR LTD,Yes,Companies House API,Mobile Tyre (General),No,16020998,active,,,,"Harley House, 29 Cambray Place, Cheltenham, GL50 1JN",,Companies House (roadside tyre)
ROADSIDE TYRES ASSIST LIMITED,Yes,Companies House API,Mobile Tyre (General),No,11673422,active,,,,"5 Ivegate Yeadon, Leeds, West Yorkshire, LS19 7RE",West Yorkshire,Companies House (roadside tyre)
ROADSIDE TYRES LTD,Yes,Companies House API,Mobile Tyre (General),No,12513828,active,,,,"27 Old Gloucester Street, London, WC1N 3AX",London,Companies House (roadside tyre)
ROADSIDETYRESMOBILE LIMITED,Yes,Companies House API,Mobile Tyre (General),No,SC843203,active,,,,"56 Whitacres Road, Glasgow, G53 7LJ",Scotland,Companies House (roadside tyre)
RTM MOBILE TYRE FITTING LTD,Yes,Companies House API,Mobile Tyre (General),No,SC801397,active,,,,"40-42 Brantwood Avenue, Dundee, DD3 6EW",Scotland,Companies House (mobile tyre fitting)
SIMS AUTOS MOBILE TYRE SERVICE LIMITED,Yes,Companies House API,Mobile Tyre (General),No,16809907,active,,,,"35 Pilot Hight Road, Bournemouth, BH11 8EY",South West,Companies House (mobile tyre service)
STAFFORD BREAKDOWN & 24HR MOBILE TYRE SERVICES LTD,Yes,Companies House API,Mobile Tyre (General),No,13031158,active,,,,"C/O Kb Accountancy, Synchro House, Etruria Road, Newcastle, ST5 0SY",North East,Companies House (breakdown tyre)
T.D MOBILE TYRE FITTING LTD,Yes,Companies House API,Mobile Tyre (General),No,16313683,active,,,,"Flat 42, Alfreda Court, Alfreda Street, London, SW11 5HQ",London,Companies House (mobile tyre fitting)
TADWORTH MOBILE TYRE FITTING LTD,Yes,Companies House API,Mobile Tyre (General),No,16703539,active,,,,"11 Waterfield Green, Tadworth, KT20 5HY",,Companies House (mobile tyre fitting)
TECH AND TYRES MOBILE VEHICLE SERVICES LTD,Yes,Companies House API,Mobile Tyre (General),No,14960137,active,,,,"Holloway House Epsom Square, White Horse Business Park, Trowbridge, Wiltshire, BA14 0XG",Wiltshire,Companies House (mobile tyre service)
THE MOBILE TYRE SERVICE (MILTON KEYNES) LTD,Yes,Companies House API,Mobile Tyre (General),No,12258698,active,,,,"The Stable Yard Vicarage Road, Stony Stratford, Milton Keynes, Buckinghamshire, MK11 1BN",Buckinghamshire,Companies House (mobile tyre service)
THE ROADSIDE MOBILE TYRE COMPANY LTD,Yes,Companies House API,Mobile Tyre (General),No,14578825,active,,,,"103 Belgrave Road, Slough, SL1 3RA",,Companies House (roadside tyre)
TIM'S MOBILE TYRE SERVICES LTD,Yes,Companies House API,Mobile Tyre (General),No,16676631,active,,,,"8 Elm Walk, Higham Ferrers, Rushden, NN10 8HE",,Companies House (mobile tyre service)
TOP TYRES MOBILE SERVICES LTD,Yes,Companies House API,Mobile Tyre (General),No,12858232,active,,,,"18 Adelphi Crescent, Hayes, UB4 8LZ",,Companies House (mobile tyre service)
TYRE BREAKDOWNS LTD,Yes,Companies House API,Mobile Tyre (General),No,16352706,active,,,,"Unit 1 Generator Hall, Electric Wharf, Coventry, CV1 4JL",West Midlands,Companies House (breakdown tyre)
TYRE EMERGENCY LTD,Yes,Companies House API,Mobile Tyre (General),No,15362025,active,,,,"41 Sir Brian Way, Bilsthorpe, Newark, NG22 8GA",,Companies House (emergency tyre)
TYRE TEK MOBILE SERVICES LIMITED,Yes,Companies House API,Mobile Tyre (General),No,15615314,active,,,,"First Floor, 1, Edmund Street, Bradford, West Yorkshire, BD5 0BH",West Yorkshire,Companies House (mobile tyre service)
TYRE WRIGHT MOBILE TYRE SERVICES LIMITED,Yes,Companies House API,Mobile Tyre (General),No,12646344,active,,,,"35 Albert Terrace, Oakenshaw, Bradford, BD12 7AX",Yorkshire,Companies House (mobile tyre service)
TYRES & TYRES - 24 HOUR EMERGENCY CALL OUT LIMITED,Yes,Companies House API,Mobile Tyre (General),No,16864020,active,,,,"189c Brent Crescent, London, NW10 7XR",London,Companies House (24 hour tyre)
TYREX MOBILE TYRE FITTING LTD,Yes,Companies House API,Mobile Tyre (General),No,16250411,active,,,,"113 Downing Close, Ipswich, IP2 9EQ",East of England,Companies House (mobile tyre fitting)
UK MOBILE TYRE FITTING LTD,Yes,Companies House API,Mobile Tyre (General),No,16449482,active,,,,"Quadrant Court, 44/45 Calthorpe Road, Edgbaston, Birmingham, United Kingdom (+44), B15 1TH",United Kingdom (+44),Companies House (mobile tyre fitting)
WEALDEN MOBILE TYRE SERVICES LTD,Yes,Companies House API,Mobile Tyre (General),No,16460269,active,,,,"Woolpack Corner Farm, Woolpack Corner, Ashford, TN27 8BU",,Companies House (mobile tyre service)
WILSON’S MOBILE TYRES LTD,Yes,Companies House API,Mobile Tyre (General),No,13244916,active,,,,"3 Cambridge Terrace, Richmond Avenue, Margate, CT9 2NF",East of England,Companies House (emergency tyre)
WM TYRES MOBILE SERVICES LTD,Yes,Companies House API,Mobile Tyre (General),No,08959854,active,,,,"Premier House, Rolfe Street, Smethwick, West Midlands, B66 2AA",West Midlands,Companies House (mobile tyre service)
XPRESS MOBILE TYRES SERVICES LIMITED,Yes,Companies House API,Mobile Tyre (General),No,16862912,active,,,,"Flat 27 The Odeon 22-30 Longbridge Road, Barking, IG11 8RR",,Companies House (mobile tyre service)
ZAK MOBILE TYRES FITTINGS LTD,Yes,Companies House API,Mobile Tyre (General),No,12692286,active,,,,"6 Ynys Bridge Court, Gwaelod-Y-Garth, Cardiff, CF15 9SS",Wales,Companies House (mobile tyre fitting)
